# From MPEC 2023-D72
C/2020 F7 (Lemmon),e,93.9510,321.8703,227.9504,585.0230,0.0000697,0.99088563,0.0000,11/13.7461/2021,2000,g  7.0,4.0
# From MPEC 2023-J29
C/2020 F8 (SWAN),h,05/27.3099/2020,110.6422,259.9000,68.0918,1.000206,0.429468,2000,10.0,4.0
# From MPEC 2020-L06
P/2020 G1 (Pimentel),e,18.5099,240.1260,207.5946,3.608348,0.1437942,0.86037574,164.9860,05/09.0/2023,2000,g 17.0,4.0
# From MPEC 2022-YB4
C/2020 H2 (Pruyne),e,124.9147,277.6649,26.6684,189.6665,0.0003773,0.99561668,0.0000,04/27.8195/2020,2000,g 14.0,3.2
# From MPEC 2020-HM1
C/2020 H3 (Wierzchos),p,06/05.7162/2020,62.5292,30.4456,2.300288,270.6227,2000,13.5,4.0
# From MPEC 2020-L06
C/2020 H4 (Leonard),e,84.4973,307.6484,117.5442,47.85750,0.0029770,0.98067997,0.0000,08/29.6390/2020,2000,g 15.0,3.2
# From MPEC 2023-J29
C/2020 H5 (Robinson),e,70.2548,210.6274,326.3406,3890,0.0000041,0.99759842,0.0000,12/10.8182/2020,2000,g  5.0,4.0
# From MPEC 2023-J29
C/2020 H6 (ATLAS),e,79.9777,213.7192,20.3047,9810,0.0000010,0.99952071,0.0000,09/30.7009/2021,2000,g  8.0,3.2
# From MPEC 2020-KB7
C/2020 H7 (Lemmon),e,135.9235,323.5194,82.6780,1405,0.0000187,0.99685380,0.0000,06/02.9510/2020,2000,g 11.0,4.0
# From MPEC 2021-N06
C/2020 H8 (PANSTARRS),e,99.6881,68.4264,128.9376,597.4818,0.0000675,0.99217579,0.0000,06/04.5100/2020,2000,g 10.5,4.0
# From MPEC 2022-ED3
A/2020 H9,e,137.8789,213.1807,312.8333,371.0166,0.0001379,0.99306260,0.0000,12/21.6356/2019,2000,g 18.0,2.0
# From MPEC 2023-HN7
C/2020 H11 (PANSTARRS-Lemmon),h,09/15.1900/2020,151.4019,303.0336,91.4744,1.002251,7.627713,2000,8.5,4.0
# From MPEC 2023-J29
C/2020 J1 (SONEAR),h,04/18.6301/2021,142.3051,226.6040,341.7427,1.000745,3.353321,2000,8.5,3.2
# From MPEC 2023-J29
C/2020 K1 (PANSTARRS),e,89.6708,94.3554,213.9844,141374,0.0000000,0.99997826,0.0000,05/09.0837/2023,2000,g  5.5,4.0
# From MPEC 2021-N06
C/2020 K2 (PANSTARRS),h,08/06.3508/2020,91.0277,288.3940,67.3507,1.003874,8.879902,2000,10.8,4.0
# From MPEC 2020-KF9
C/2020 K3 (Leonard),p,06/01.0032/2020,129.0152,64.4924,1.583069,28.3546,2000,14.5,4.0
# From MPEC 2020-L06
C/2020 K4 (PANSTARRS),e,125.5830,264.1947,308.8614,23.96279,0.0084023,0.92681737,9.7555,05/09.0/2023,2000,g 16.5,4.0
# From MPEC 2021-R75
C/2020 K5 (PANSTARRS),h,06/05.4612/2021,67.1155,86.1620,249.6118,1.001372,1.536771,2000,11.0,4.0
# From MPEC 2023-J29
C/2020 K6 (Rankin),h,09/15.8291/2021,103.6496,291.5535,44.3363,1.003668,5.868857,2000,8.0,4.0
# From MPEC 2023-A50
C/2020 K7 (PANSTARRS),e,32.0419,286.0801,358.2543,98.63249,0.0010062,0.93517696,1.2968,05/09.0/2023,2000,g  8.0,4.0
# From MPEC 2021-P47
C/2020 K8 (Catalina-ATLAS),h,09/14.8480/2020,31.4254,181.5348,259.9604,1.000185,0.471978,2000,15.0,3.2
# From MPEC 2021-BE3
P/2020 K9 (Lemmon-PANSTARRS),e,23.2080,166.2441,197.0609,4.202883,0.1143887,0.32126425,93.2955,05/09.0/2023,2000,g 12.5,4.0
# From MPEC 2023-C45
P/2020 M1 (PANSTARRS),e,8.5379,142.6283,72.6484,5.317141,0.0803872,0.47373334,98.8784,05/09.0/2023,2000,g 14.5,4.0
# From MPEC 2022-H30
C/2020 M3 (ATLAS),e,23.4771,71.1598,328.5605,27.10034,0.0069862,0.95319191,6.4631,05/09.0/2023,2000,g 14.5,4.0
# From MPEC 2023-B57
A/2020 M4,h,11/24.1730/2020,160.1252,348.6230,104.6352,1.001035,5.950791,2000,14.5,2.0
# From MPC xxxxx
P/2020 MK4 (PANSTARRS),e,6.7986,0.7155,102.8356,6.205129,0.0637643,0.01185062,258.8322,05/09.0/2023,2000,g  8.0,4.0
# From MPEC 2023-FK0
C/2020 M5 (ATLAS),h,08/19.8580/2021,93.2190,352.0898,126.3043,1.000398,3.002830,2000,9.0,4.0
# From MPEC 2022-GA9
C/2020 N1 (PANSTARRS),h,03/12.3522/2021,29.7257,279.9267,186.7607,1.000471,1.318555,2000,12.5,4.0
# From MPEC 2021-P47
C/2020 N2 (ATLAS),e,161.0337,257.1593,331.3137,104.5280,0.0009223,0.98285001,0.0000,08/24.0897/2020,2000,g 16.0,3.2
# From MPEC 2023-J29
C/2020 O2 (Amaral),h,08/28.5145/2021,71.7603,256.7728,10.3036,1.001588,4.862393,2000,8.0,3.2
# From MPEC 2023-C45
P/2020 O3 (PANSTARRS),e,8.4443,266.8185,81.6365,4.647715,0.0983660,0.10311623,81.5288,05/09.0/2023,2000,g 12.0,4.0
# From MPEC 2021-BE3
C/2020 P1 (NEOWISE),h,10/20.4378/2020,45.1742,53.4858,8.8907,1.000318,0.341001,2000,14.0,3.2
# From MPEC 2023-J29
C/2020 P3 (ATLAS),h,04/21.3715/2021,61.8892,19.4657,82.2759,1.001474,6.812573,2000,6.0,4.0
# From MPEC 2022-PB4
C/2020 PV6 (PANSTARRS),e,128.2262,329.1489,71.3842,42.06595,0.0036125,0.94544239,2.1310,05/09.0/2023,2000,g 10.0,4.0
# From MPEC 2022-L66
C/2020 Q1 (Borisov),e,142.9425,52.3889,9.9576,60.92287,0.0020727,0.97836700,0.0000,08/14.4257/2020,2000,g 14.0,4.0
# From MPEC 2023-CD7
C/2020 Q2 (PANSTARRS),e,3.3363,179.8288,118.2646,10.64692,0.0283706,0.49207266,33.9080,05/09.0/2023,2000,g 12.0,3.2
# From MPEC 2022-X67
C/2020 R2 (PANSTARRS),e,53.2282,195.0935,211.7941,409.7376,0.0001188,0.98854665,0.0000,02/24.9044/2022,2000,g  9.0,4.0
# From MPEC 2022-K19
C/2020 R4 (ATLAS),e,164.4513,323.2722,46.6861,99.80027,0.0009886,0.98971047,0.0000,03/02.1714/2021,2000,g 13.5,4.0
# From MPEC 2023-C45
P/2020 R5 (PANSTARRS),e,11.4450,272.9687,82.6225,4.987533,0.0884862,0.31447658,95.0816,05/09.0/2023,2000,g  9.5,6.0
# From MPEC 2021-Y10
C/2020 R6 (Rankin),e,82.8130,12.1787,271.9919,315.1550,0.0001762,0.99005546,0.0000,09/08.5139/2019,2000,g 11.0,4.0
# From MPEC 2023-J29
C/2020 R7 (ATLAS),h,09/16.2519/2022,114.8962,268.2842,347.8413,1.000236,2.955984,2000,7.0,3.2
# From MPEC 2021-BE3
P/2020 S1 (PANSTARRS),e,13.7279,129.4621,255.0309,5.993190,0.0671764,0.50773048,56.5257,05/09.0/2023,2000,g 14.0,4.0
# From MPEC 2022-ST7
C/2020 S2 (PANSTARRS),e,22.4043,197.6626,202.3462,10.22309,0.0301530,0.82813224,26.1667,05/09.0/2023,2000,g 17.0,4.0
# From MPEC 2022-C56
C/2020 S3 (Erasmus),e,20.0180,222.5969,350.0944,152.2282,0.0005248,0.99739791,0.0000,12/12.0344/2020,2000,g 13.5,3.2
# From MPEC 2023-J29
C/2020 S4 (PANSTARRS),h,02/09.2408/2023,20.5690,117.7204,20.9924,1.001318,3.369733,2000,8.5,3.2
# From MPEC 2021-BE3
P/2020 S5 (PANSTARRS),e,12.3471,315.9990,53.2268,4.054420,0.1207288,0.33845804,121.0787,05/09.0/2023,2000,g 14.5,4.0
# From MPEC 2021-BE3
P/2020 S7 (PANSTARRS),e,16.0869,328.0293,40.5903,5.030834,0.0873462,0.41065999,78.7207,05/09.0/2023,2000,g 14.5,4.0
# From MPEC 2021-P47
C/2020 S8 (Lemmon),e,108.5275,24.0679,160.2738,262.8133,0.0002313,0.99101488,0.0000,04/10.8213/2021,2000,g 12.5,4.0
# From MPEC 2022-ST7
C/2020 T2 (Palomar),e,27.8551,82.9685,150.5191,305.5909,0.0001845,0.99326750,0.0000,07/11.0061/2021,2000,g 11.0,3.2
# From MPEC 2021-N06
P/2020 T3 (PANSTARRS),e,7.2990,73.9885,357.0407,3.516976,0.1494342,0.59210777,125.2543,05/09.0/2023,2000,g 18.0,3.2
# From MPEC 2021-N06
C/2020 T4 (PANSTARRS),h,07/05.3429/2021,83.8404,50.6151,79.6066,1.000262,2.191376,2000,13.0,3.2
# From MPEC 2021-BE3
C/2020 T5 (Lemmon),e,66.5592,237.8414,90.3365,745.3715,0.0000484,0.99746242,0.0000,10/09.3128/2020,2000,g 16.0,4.0
# From MPEC 2021-N06
P/2020 U2 (PANSTARRS),e,6.4195,342.8829,84.6492,3.778059,0.1342150,0.51113132,115.9524,05/09.0/2023,2000,g 18.0,4.0
# From MPEC 2021-W31
C/2020 U3 (Rankin),e,30.1570,282.6400,124.3470,66.54979,0.0018154,0.96578134,1.4919,05/09.0/2023,2000,g 15.0,4.0
# From MPEC 2023-CD7
C/2020 U4 (PANSTARRS),h,04/09.4268/2022,167.0227,120.3105,70.0010,1.001585,5.357715,2000,7.0,4.0
# From MPEC 2022-YB4
C/2020 U5 (PANSTARRS),e,97.2735,107.3266,75.4345,3808,0.0000042,0.99901368,0.0000,04/27.9657/2022,2000,g  8.0,4.0
# From MPEC 2023-HD1
C/2020 V2 (ZTF),h,05/08.5621/2023,131.6117,212.3715,162.4287,1.001156,2.227844,2000,7.8,4.0
# From MPEC 2023-D72
P/2020 V3 (PANSTARRS),e,23.0330,198.2524,249.3716,8.385782,0.0405872,0.25696026,33.2259,05/09.0/2023,2000,g  8.3,4.0
# From MPEC 2023-J29
P/2020 V4 (Rankin),e,14.2443,203.4830,257.0369,9.368850,0.0343696,0.45046613,22.6741,05/09.0/2023,2000,g  9.0,4.0
# From MPEC 2021-BE3
P/2020 W1 (Rankin),e,10.7868,124.2723,265.1590,7.214885,0.0508581,0.26632520,57.2331,05/09.0/2023,2000,g 10.0,4.0
# From MPEC 2021-BE3
C/2020 W5 (Lemmon),h,11/30.1178/2020,88.5970,75.4688,24.5019,1.000807,3.365412,2000,15.0,4.0
# From MPEC 2023-J29
P/2020 WJ5 (Lemmon),e,22.2932,177.8087,338.1717,6.015929,0.0667959,0.17136450,45.2292,05/09.0/2023,2000,g  8.5,4.0
# From MPEC 2021-P47
P/2020 X1 (ATLAS),e,31.6930,55.9904,323.4349,4.530945,0.1021930,0.36545015,104.4540,05/09.0/2023,2000,g 13.0,4.0
# From MPEC 2021-U31
C/2020 X2 (ATLAS),e,18.1850,105.4196,347.3764,16.45535,0.0147653,0.76742176,13.3463,05/09.0/2023,2000,g 10.6,4.0
# From MPEC 2021-S45
C/2020 X4 (Leonard),e,80.6076,161.8832,140.3067,40.68984,0.0037973,0.87165609,3.4330,05/09.0/2023,2000,g  9.0,4.0
# From MPEC 2023-D72
C/2020 Y2 (ATLAS),e,101.3009,26.5125,266.1548,1226,0.0000230,0.99744395,0.0000,06/17.8928/2022,2000,g  6.5,4.0
# From MPEC 2021-R75
C/2020 Y3 (ATLAS),e,83.1016,191.4395,341.9516,142.6486,0.0005785,0.98600616,0.0000,12/03.3190/2020,2000,g 13.5,4.0
# From MPEC 2023-CD7
C/2021 A1 (Leonard),h,01/03.2866/2022,132.7107,255.8984,225.1127,1.000018,0.615732,2000,8.5,4.0
# From MPEC 2022-F14
C/2021 A2 (NEOWISE),e,106.9879,125.1961,338.7841,233.2404,0.0002767,0.99394569,0.0000,01/22.4237/2021,2000,g 13.5,4.0
# From MPEC 2022-ED3
C/2021 A4 (NEOWISE),e,111.5371,307.1116,204.7091,42.46476,0.0035617,0.97297960,0.0000,03/19.7502/2021,2000,g 16.0,4.0
# From MPEC 2021-BE3
P/2021 A5 (PANSTARRS),e,18.1834,328.7610,61.3486,3.047729,0.1852420,0.13989752,168.0730,05/09.0/2023,2000,g 15.0,4.0
# From MPEC 2023-HD1
C/2021 A6 (PANSTARRS),e,75.6028,164.0743,351.6382,9180,0.0000011,0.99913658,0.0000,05/03.3032/2021,2000,g  9.0,4.0
# From MPEC 2022-M88
C/2021 A7 (NEOWISE),e,78.1537,154.5027,356.0096,2318,0.0000088,0.99915188,0.0000,07/15.1928/2021,2000,g 10.0,4.0
# From MPEC 2023-J29
C/2021 A9 (PANSTARRS),h,12/01.6351/2023,158.0178,314.8405,211.4611,1.002118,7.760104,2000,6.0,4.0
# From MPEC 2021-N06
C/2021 A10 (NEOWISE),e,151.9264,188.6823,82.3671,87.79712,0.0011981,0.98562110,0.0000,03/15.0646/2021,2000,g 19.0,4.0
# From MPEC 2022-L66
C/2021 B2 (PANSTARRS),e,38.0850,120.5219,334.9803,362.6502,0.0001427,0.99307342,0.0000,05/04.3744/2021,2000,g 14.0,4.0
# From MPEC 2021-N06
